CCSDS_OMM_VERS,COMMENT,CREATION_DATE,ORIGINATOR,OBJECT_NAME,OBJECT_ID,CENTER_NAME,REF_FRAME,TIME_SYSTEM,MEAN_ELEMENT_THEORY,EPOCH,MEAN_MOTION,ECCENTRICITY,INCLINATION,RA_OF_ASC_NODE,ARG_OF_PERICENTER,MEAN_ANOMALY,EPHEMERIS_TYPE,CLASSIFICATION_TYPE,NORAD_CAT_ID,ELEMENT_SET_NO,REV_AT_EPOCH,BSTAR,MEAN_MOTION_DOT,MEAN_MOTION_DDOT,SEMIMAJOR_AXIS,PERIOD,APOAPSIS,PERIAPSIS,OBJECT_TYPE,RCS_SIZE,COUNTRY_CODE,LAUNCH_DATE,SITE,DECAY_DATE,FILE,GP_ID,TLE_LINE0,TLE_LINE1,TLE_LINE2
"2.0","GENERATED VIA SPACE-TRACK.ORG API","2019-10-09T22:40:17","18 SPCS","AEOLUS","2018-066A","EARTH","TEME","UTC","SGP4","2019-10-09T15:15:15.659424","15.86734930","0.00033860","96.7170","287.7953","103.9409","34.7052","0","U","43600","999","6543","0.00000961420000","0.00002299","0.0000000000000","6689.581","90.752","313.711","309.180","PAYLOAD","LARGE","ESA","2018-08-22","FRGUI","","2628042","140951939","0 AEOLUS","1 43600U 18066A   19282.63559791  .00002299  00000-0  96142-5 0  9990","2 43600  96.7170 287.7953 0003386 103.9409  34.7052 15.86734930 65437"
"2.0","GENERATED VIA SPACE-TRACK.ORG API","2019-10-10T04:32:39","18 SPCS","STARLINK-44","2019-029AC","EARTH","TEME","UTC","SGP4","2019-10-09T19:10:12.808704","15.05514725","0.00010410","53.0005","269.5456","85.6035","274.5072","0","U","44261","999","2011","0.00007612400000","0.00000828","0.0000000000000","6928.063","95.648","550.649","549.206","PAYLOAD","LARGE","US","2019-05-24","AFETR","","2628135","140971001","0 STARLINK-44","1 44261U 19029AC  19282.79875936 +.00000828 +00000-0 +76124-4 0  9996","2 44261 053.0005 269.5456 0001041 085.6035 274.5072 15.05514725020118"
"2.0","GENERATED VIA SPACE-TRACK.ORG API","2019-10-10T04:32:39","18 SPCS","AEOLUS","2018-066A","EARTH","TEME","UTC","SGP4","2019-10-09T22:29:03.721632","15.86733642","0.00035390","96.7167","288.0875","97.0080","321.2713","0","U","43600","999","6548","0.00000505310000","0.00001143","0.0000000000000","6689.584","90.752","313.817","309.082","PAYLOAD","LARGE","ESA","2018-08-22","FRGUI","","2628135","140970461","0 AEOLUS","1 43600U 18066A   19282.93684863 +.00001143 +00000-0 +50531-5 0  9991","2 43600 096.7167 288.0875 0003539 097.0080 321.2713 15.86733642065480"
"2.0","GENERATED VIA SPACE-TRACK.ORG API","2019-10-10T06:40:17","18 SPCS","AEOLUS","2018-066A","EARTH","TEME","UTC","SGP4","2019-10-10T01:29:17.784096","15.86748205","0.00029550","96.7161","288.2133","99.7805","313.0216","0","U","43600","999","6550","0.00001709200000","0.00004196","0.0000000000000","6689.543","90.751","313.385","309.431","PAYLOAD","LARGE","ESA","2018-08-22","FRGUI","","2628440","140978608","0 AEOLUS","1 43600U 18066A   19283.06201139  .00004196  00000-0  17092-4 0  9992","2 43600  96.7161 288.2133 0002955  99.7805 313.0216 15.86748205 65509"
"2.0","GENERATED VIA SPACE-TRACK.ORG API","2019-10-10T11:50:17","18 SPCS","AEOLUS","2018-066A","EARTH","TEME","UTC","SGP4","2019-10-10T02:57:01.570176","15.86752786","0.00027150","96.7162","288.2733","98.1092","302.4810","0","U","43600","999","6551","0.00002038000000","0.00005030","0.0000000000000","6689.530","90.751","313.212","309.579","PAYLOAD","LARGE","ESA","2018-08-22","FRGUI","","2628743","140985786","0 AEOLUS","1 43600U 18066A   19283.12293484  .00005030  00000-0  20380-4 0  9995","2 43600  96.7162 288.2733 0002715  98.1092 302.4810 15.86752786 65513"
"2.0","GENERATED VIA SPACE-TRACK.ORG API","2019-10-10T06:20:19","18 SPCS","STARLINK-44","2019-029AC","EARTH","TEME","UTC","SGP4","2019-10-10T03:08:12.354720","15.05482412","0.00011370","53.0006","268.0562","86.6436","273.4682","0","U","44261","999","2110","0.00007556500000","0.00000819","0.0000000000000","6928.162","95.650","550.814","549.239","PAYLOAD","LARGE","US","2019-05-24","AFETR","","2628186","140972371","0 STARLINK-44","1 44261U 19029AC  19283.13069855  .00000819  00000-0  75565-4 0  9998","2 44261  53.0006 268.0562 0001137  86.6436 273.4682 15.05482412 21105"
"2.0","GENERATED VIA SPACE-TRACK.ORG API","2019-10-11T04:53:30","18 SPCS","STARLINK-44","2019-029AC","EARTH","TEME","UTC","SGP4","2019-10-10T09:30:35.697600","15.05482745","0.00011460","53.0006","266.8642","86.5723","273.5396","0","U","44261","999","2020","0.00007638400000","0.00000831","0.0000000000000","6928.161","95.650","550.820","549.232","PAYLOAD","LARGE","US","2019-05-24","AFETR","","2629409","141056214","0 STARLINK-44","1 44261U 19029AC  19283.39624650 +.00000831 +00000-0 +76384-4 0  9990","2 44261 053.0006 266.8642 0001146 086.5723 273.5396 15.05482745020200"
"2.0","GENERATED VIA SPACE-TRACK.ORG API","2019-10-10T20:40:19","18 SPCS","AEOLUS","2018-066A","EARTH","TEME","UTC","SGP4","2019-10-10T15:27:59.078592","15.86830889","0.00034290","96.7221","288.7883","107.2349","30.4764","0","U","43600","999","6559","0.00009557800000","0.00024238","0.0000000000000","6689.311","90.746","313.470","308.882","PAYLOAD","LARGE","ESA","2018-08-22","FRGUI","","2629235","141035336","0 AEOLUS","1 43600U 18066A   19283.64443378  .00024238  00000-0  95578-4 0  9993","2 43600  96.7221 288.7883 0003429 107.2349  30.4764 15.86830889 65595"
"2.0","GENERATED VIA SPACE-TRACK.ORG API","2019-10-11T04:53:30","18 SPCS","AEOLUS","2018-066A","EARTH","TEME","UTC","SGP4","2019-10-10T22:42:21.532320","15.86849163","0.00033280","96.7226","289.0860","103.3673","316.3740","0","U","43600","999","6564","0.00009872000000","0.00025063","0.0000000000000","6689.260","90.745","313.351","308.898","PAYLOAD","LARGE","ESA","2018-08-22","FRGUI","","2629409","141055674","0 AEOLUS","1 43600U 18066A   19283.94608255 +.00025063 +00000-0 +98720-4 0  9992","2 43600 096.7226 289.0860 0003328 103.3673 316.3740 15.86849163065645"
"2.0","GENERATED VIA SPACE-TRACK.ORG API","2019-10-11T06:40:18","18 SPCS","AEOLUS","2018-066A","EARTH","TEME","UTC","SGP4","2019-10-11T00:12:07.799040","15.86854924","0.00032780","96.7225","289.1485","101.7717","313.8666","0","U","43600","999","6565","0.00010095000000","0.00025642","0.0000000000000","6689.243","90.745","313.301","308.916","PAYLOAD","LARGE","ESA","2018-08-22","FRGUI","","2629745","141064718","0 AEOLUS","1 43600U 18066A   19284.00842360  .00025642  00000-0  10095-3 0  9998","2 43600  96.7225 289.1485 0003278 101.7717 313.8666 15.86854924 65654"
"2.0","GENERATED VIA SPACE-TRACK.ORG API","2019-10-11T14:20:19","18 SPCS","STARLINK-44","2019-029AC","EARTH","TEME","UTC","SGP4","2019-10-11T07:48:57.237408","15.05485596","0.00011880","53.0005","262.6923","84.9957","275.1166","0","U","44261","999","2128","0.00009516600000","0.00001104","0.0000000000000","6928.152","95.650","550.840","549.194","PAYLOAD","LARGE","US","2019-05-24","AFETR","","2629859","141066510","0 STARLINK-44","1 44261U 19029AC  19284.32566247  .00001104  00000-0  95166-4 0  9994","2 44261  53.0005 262.6923 0001188  84.9957 275.1166 15.05485596 21281"
"2.0","GENERATED VIA SPACE-TRACK.ORG API","2019-10-11T14:40:20","18 SPCS","AEOLUS","2018-066A","EARTH","TEME","UTC","SGP4","2019-10-11T12:34:58.350144","15.86895039","0.00041320","96.7217","289.6582","91.9028","28.7247","0","U","43600","999","6573","0.00011553000000","0.00029440","0.0000000000000","6689.131","90.743","313.760","308.232","PAYLOAD","LARGE","ESA","2018-08-22","FRGUI","","2630171","141074333","0 AEOLUS","1 43600U 18066A   19284.52428646  .00029440  00000-0  11553-3 0  9992","2 43600  96.7217 289.6582 0004132  91.9028  28.7247 15.86895039 65731"
"2.0","GENERATED VIA SPACE-TRACK.ORG API","2019-10-11T22:40:18","18 SPCS","AEOLUS","2018-066A","EARTH","TEME","UTC","SGP4","2019-10-11T16:52:17.898816","15.86906993","0.00041070","96.7227","289.8343","91.5127","329.2942","0","U","43600","999","6576","0.00011677000000","0.00029777","0.0000000000000","6689.097","90.742","313.709","308.215","PAYLOAD","LARGE","ESA","2018-08-22","FRGUI","","2630590","141102244","0 AEOLUS","1 43600U 18066A   19284.70298494  .00029777  00000-0  11677-3 0  9998","2 43600  96.7227 289.8343 0004107  91.5127 329.2942 15.86906993 65763"
"2.0","GENERATED VIA SPACE-TRACK.ORG API","2019-10-12T04:36:40","18 SPCS","STARLINK-44","2019-029AC","EARTH","TEME","UTC","SGP4","2019-10-11T22:09:19.547424","15.05487613","0.00011690","53.0004","260.0102","85.2343","274.8779","0","U","44261","999","2043","0.00009963900000","0.00001169","0.0000000000000","6928.146","95.650","550.821","549.201","PAYLOAD","LARGE","US","2019-05-24","AFETR","","2630639","141121160","0 STARLINK-44","1 44261U 19029AC  19284.92314291 +.00001169 +00000-0 +99639-4 0  9990","2 44261 053.0004 260.0102 0001169 085.2343 274.8779 15.05487613020437"
"2.0","GENERATED VIA SPACE-TRACK.ORG API","2019-10-12T07:00:14","18 SPCS","AEOLUS","2018-066A","EARTH","TEME","UTC","SGP4","2019-10-12T00:25:24.843360","15.86929557","0.00039410","96.7208","290.1445","93.5744","323.6512","0","U","43600","999","6581","0.00012051000000","0.00030770","0.0000000000000","6689.034","90.741","313.535","308.262","PAYLOAD","LARGE","ESA","2018-08-22","FRGUI","","2631018","141130506","0 AEOLUS","1 43600U 18066A   19285.01764865  .00030770  00000-0  12051-3 0  9995","2 43600  96.7208 290.1445 0003941  93.5744 323.6512 15.86929557 65810"
"2.0","GENERATED VIA SPACE-TRACK.ORG API","2019-10-12T22:20:18","18 SPCS","STARLINK-44","2019-029AC","EARTH","TEME","UTC","SGP4","2019-10-12T10:54:06.057792","15.05488794","0.00012110","53.0004","257.6264","83.6892","276.4234","0","U","44261","999","2145","0.00009603600000","0.00001117","0.0000000000000","6928.142","95.649","550.846","549.168","PAYLOAD","LARGE","US","2019-05-24","AFETR","","2631571","141160117","0 STARLINK-44","1 44261U 19029AC  19285.45423678  .00001117  00000-0  96036-4 0  9990","2 44261  53.0004 257.6264 0001211  83.6892 276.4234 15.05488794 21455"
